[{"OBJECT_NAME":"GPS BIIR-2  (PRN 13)","OBJECT_ID":"1997-035A","EPOCH":"2026-03-14T11:18:56.431008","MEAN_MOTION":2.00564034,"ECCENTRICITY":0.00982168,"INCLINATION":55.9413,"RA_OF_ASC_NODE":102.2771,"ARG_OF_PERICENTER":56.2098,"MEAN_ANOMALY":304.7946,"EPHEMERIS_TYPE":0,"CLASSIFICATION_TYPE":"U","NORAD_CAT_ID":24876,"ELEMENT_SET_NO":999,"REV_AT_EPOCH":21005,"BSTAR":0,"MEAN_MOTION_DOT":4.6e-7,"MEAN_MOTION_DDOT":0},{"OBJECT_NAME":"GPS BIIR-5  (PRN 22)","OBJECT_ID":"2000-040A","EPOCH":"2026-03-14T13:43:49.207584","MEAN_MOTION":2.00569037,"ECCENTRICITY":0.01224688,"INCLINATION":54.873,"RA_OF_ASC_NODE":218.9181,"ARG_OF_PERICENTER":302.5344,"MEAN_ANOMALY":64.4987,"EPHEMERIS_TYPE":0,"CLASSIFICATION_TYPE":"U","NORAD_CAT_ID":26407,"ELEMENT_SET_NO":999,"REV_AT_EPOCH":18805,"BSTAR":0,"MEAN_MOTION_DOT":1.8e-7,"MEAN_MOTION_DDOT":0},{"OBJECT_NAME":"GPS BIIR-8  (PRN 16)","OBJECT_ID":"2003-005A","EPOCH":"2026-03-14T22:44:30.375456","MEAN_MOTION":2.00565678,"ECCENTRICITY":0.01486778,"INCLINATION":54.9048,"RA_OF_ASC_NODE":218.7109,"ARG_OF_PERICENTER":52.792,"MEAN_ANOMALY":1.1555,"EPHEMERIS_TYPE":0,"CLASSIFICATION_TYPE":"U","NORAD_CAT_ID":27663,"ELEMENT_SET_NO":999,"REV_AT_EPOCH":16942,"BSTAR":0,"MEAN_MOTION_DOT":1.6e-7,"MEAN_MOTION_DDOT":0},{"OBJECT_NAME":"GPS BIIR-11 (PRN 19)","OBJECT_ID":"2004-009A","EPOCH":"2026-03-14T09:06:01.528704","MEAN_MOTION":2.00557837,"ECCENTRICITY":0.01114344,"INCLINATION":54.908,"RA_OF_ASC_NODE":279.5164,"ARG_OF_PERICENTER":169.3433,"MEAN_ANOMALY":349.7979,"EPHEMERIS_TYPE":0,"CLASSIFICATION_TYPE":"U","NORAD_CAT_ID":28190,"ELEMENT_SET_NO":999,"REV_AT_EPOCH":16104,"BSTAR":0,"MEAN_MOTION_DOT":2.8e-7,"MEAN_MOTION_DDOT":0},{"OBJECT_NAME":"GPS BIIR-13 (PRN 02)","OBJECT_ID":"2004-045A","EPOCH":"2026-03-14T19:06:24.298848","MEAN_MOTION":2.00573977,"ECCENTRICITY":0.01706878,"INCLINATION":55.1887,"RA_OF_ASC_NODE":328.7004,"ARG_OF_PERICENTER":313.2377,"MEAN_ANOMALY":210.9067,"EPHEMERIS_TYPE":0,"CLASSIFICATION_TYPE":"U","NORAD_CAT_ID":28474,"ELEMENT_SET_NO":999,"REV_AT_EPOCH":15653,"BSTAR":0,"MEAN_MOTION_DOT":-6.2e-7,"MEAN_MOTION_DDOT":0},{"OBJECT_NAME":"GPS BIIRM-1 (PRN 17)","OBJECT_ID":"2005-038A","EPOCH":"2026-03-15T07:58:15.613824","MEAN_MOTION":2.00572279,"ECCENTRICITY":0.01285163,"INCLINATION":54.9547,"RA_OF_ASC_NODE":276.9637,"ARG_OF_PERICENTER":295.4886,"MEAN_ANOMALY":216.0699,"EPHEMERIS_TYPE":0,"CLASSIFICATION_TYPE":"U","NORAD_CAT_ID":28874,"ELEMENT_SET_NO":999,"REV_AT_EPOCH":14995,"BSTAR":0,"MEAN_MOTION_DOT":3.1e-7,"MEAN_MOTION_DDOT":0},{"OBJECT_NAME":"GPS BIIRM-2 (PRN 31)","OBJECT_ID":"2006-042A","EPOCH":"2026-03-13T06:53:42.401184","MEAN_MOTION":2.00575008,"ECCENTRICITY":0.01065834,"INCLINATION":54.6981,"RA_OF_ASC_NODE":155.1475,"ARG_OF_PERICENTER":52.9845,"MEAN_ANOMALY":319.1322,"EPHEMERIS_TYPE":0,"CLASSIFICATION_TYPE":"U","NORAD_CAT_ID":29486,"ELEMENT_SET_NO":999,"REV_AT_EPOCH":14247,"BSTAR":0,"MEAN_MOTION_DOT":-1.4e-7,"MEAN_MOTION_DDOT":0},{"OBJECT_NAME":"GPS BIIRM-3 (PRN 12)","OBJECT_ID":"2006-052A","EPOCH":"2026-03-11T16:37:48.789984","MEAN_MOTION":2.00552224,"ECCENTRICITY":0.0087716,"INCLINATION":54.9554,"RA_OF_ASC_NODE":217.8682,"ARG_OF_PERICENTER":89.5016,"MEAN_ANOMALY":271.4739,"EPHEMERIS_TYPE":0,"CLASSIFICATION_TYPE":"U","NORAD_CAT_ID":29601,"ELEMENT_SET_NO":999,"REV_AT_EPOCH":14145,"BSTAR":0,"MEAN_MOTION_DOT":3.3e-7,"MEAN_MOTION_DDOT":0},{"OBJECT_NAME":"GPS BIIRM-4 (PRN 15)","OBJECT_ID":"2007-047A","EPOCH":"2026-03-14T23:46:53.549184","MEAN_MOTION":2.00560242,"ECCENTRICITY":0.01637047,"INCLINATION":54.0243,"RA_OF_ASC_NODE":83.9465,"ARG_OF_PERICENTER":86.0536,"MEAN_ANOMALY":275.8703,"EPHEMERIS_TYPE":0,"CLASSIFICATION_TYPE":"U","NORAD_CAT_ID":32260,"ELEMENT_SET_NO":999,"REV_AT_EPOCH":13492,"BSTAR":0,"MEAN_MOTION_DOT":3.7e-7,"MEAN_MOTION_DDOT":0},{"OBJECT_NAME":"GPS BIIRM-5 (PRN 29)","OBJECT_ID":"2007-062A","EPOCH":"2026-03-13T01:25:28.658208","MEAN_MOTION":2.00554193,"ECCENTRICITY":0.00331869,"INCLINATION":55.1084,"RA_OF_ASC_NODE":278.0153,"ARG_OF_PERICENTER":160.7725,"MEAN_ANOMALY":12.4048,"EPHEMERIS_TYPE":0,"CLASSIFICATION_TYPE":"U","NORAD_CAT_ID":32384,"ELEMENT_SET_NO":999,"REV_AT_EPOCH":13358,"BSTAR":0,"MEAN_MOTION_DOT":2.9e-7,"MEAN_MOTION_DDOT":0},{"OBJECT_NAME":"GPS BIIRM-6 (PRN 07)","OBJECT_ID":"2008-012A","EPOCH":"2026-03-13T09:54:44.053632","MEAN_MOTION":2.005696,"ECCENTRICITY":0.02075071,"INCLINATION":54.4828,"RA_OF_ASC_NODE":153.7522,"ARG_OF_PERICENTER":246.3415,"MEAN_ANOMALY":111.508,"EPHEMERIS_TYPE":0,"CLASSIFICATION_TYPE":"U","NORAD_CAT_ID":32711,"ELEMENT_SET_NO":999,"REV_AT_EPOCH":13183,"BSTAR":0,"MEAN_MOTION_DOT":-1.2e-7,"MEAN_MOTION_DDOT":0},{"OBJECT_NAME":"GPS BIIRM-8 (PRN 05)","OBJECT_ID":"2009-043A","EPOCH":"2026-03-15T03:18:42.405984","MEAN_MOTION":2.0055978,"ECCENTRICITY":0.00519356,"INCLINATION":56.1551,"RA_OF_ASC_NODE":31.1461,"ARG_OF_PERICENTER":80.7268,"MEAN_ANOMALY":100.3102,"EPHEMERIS_TYPE":0,"CLASSIFICATION_TYPE":"U","NORAD_CAT_ID":35752,"ELEMENT_SET_NO":999,"REV_AT_EPOCH":12147,"BSTAR":0,"MEAN_MOTION_DOT":-5.3e-7,"MEAN_MOTION_DDOT":0},{"OBJECT_NAME":"GPS BIIF-1  (PRN 25)","OBJECT_ID":"2010-022A","EPOCH":"2026-03-14T23:18:57.898080","MEAN_MOTION":2.00557777,"ECCENTRICITY":0.01272259,"INCLINATION":54.2869,"RA_OF_ASC_NODE":212.3556,"ARG_OF_PERICENTER":65.9481,"MEAN_ANOMALY":111.6463,"EPHEMERIS_TYPE":0,"CLASSIFICATION_TYPE":"U","NORAD_CAT_ID":36585,"ELEMENT_SET_NO":999,"REV_AT_EPOCH":11570,"BSTAR":0,"MEAN_MOTION_DOT":8.0e-8,"MEAN_MOTION_DDOT":0},{"OBJECT_NAME":"GPS BIIF-3  (PRN 24)","OBJECT_ID":"2012-053A","EPOCH":"2026-03-14T02:09:17.761824","MEAN_MOTION":2.00565997,"ECCENTRICITY":0.0177046,"INCLINATION":53.5669,"RA_OF_ASC_NODE":147.4965,"ARG_OF_PERICENTER":64.8456,"MEAN_ANOMALY":297.0314,"EPHEMERIS_TYPE":0,"CLASSIFICATION_TYPE":"U","NORAD_CAT_ID":38833,"ELEMENT_SET_NO":999,"REV_AT_EPOCH":9753,"BSTAR":0,"MEAN_MOTION_DOT":-2.0e-8,"MEAN_MOTION_DDOT":0},{"OBJECT_NAME":"GPS BIIF-4  (PRN 27)","OBJECT_ID":"2013-023A","EPOCH":"2026-03-13T22:54:52.077024","MEAN_MOTION":2.00564183,"ECCENTRICITY":0.01417868,"INCLINATION":54.5793,"RA_OF_ASC_NODE":272.8513,"ARG_OF_PERICENTER":50.0653,"MEAN_ANOMALY":311.2026,"EPHEMERIS_TYPE":0,"CLASSIFICATION_TYPE":"U","NORAD_CAT_ID":39166,"ELEMENT_SET_NO":999,"REV_AT_EPOCH":9397,"BSTAR":0,"MEAN_MOTION_DOT":3.5e-7,"MEAN_MOTION_DDOT":0},{"OBJECT_NAME":"GPS BIIF-5  (PRN 30)","OBJECT_ID":"2014-008A","EPOCH":"2026-03-13T22:53:22.290144","MEAN_MOTION":2.00553744,"ECCENTRICITY":0.00826427,"INCLINATION":53.6383,"RA_OF_ASC_NODE":153.2055,"ARG_OF_PERICENTER":228.6391,"MEAN_ANOMALY":130.6893,"EPHEMERIS_TYPE":0,"CLASSIFICATION_TYPE":"U","NORAD_CAT_ID":39533,"ELEMENT_SET_NO":999,"REV_AT_EPOCH":8777,"BSTAR":0,"MEAN_MOTION_DOT":-8.0e-8,"MEAN_MOTION_DDOT":0},{"OBJECT_NAME":"GPS BIIF-6  (PRN 06)","OBJECT_ID":"2014-026A","EPOCH":"2026-03-14T05:33:03.338496","MEAN_MOTION":2.00568021,"ECCENTRICITY":0.0039739,"INCLINATION":56.5417,"RA_OF_ASC_NODE":335.2169,"ARG_OF_PERICENTER":325.0603,"MEAN_ANOMALY":34.7215,"EPHEMERIS_TYPE":0,"CLASSIFICATION_TYPE":"U","NORAD_CAT_ID":39741,"ELEMENT_SET_NO":999,"REV_AT_EPOCH":8663,"BSTAR":0,"MEAN_MOTION_DOT":-7.4e-7,"MEAN_MOTION_DDOT":0}]
